CCSDS_OMM_VERS = 2.0
CREATION_DATE  = 
ORIGINATOR     = 

OBJECT_NAME    = STARLINK-36579
OBJECT_ID      = 2026-014K
CENTER_NAME    = EARTH
REF_FRAME      = TEME
TIME_SYSTEM    = UTC
MEAN_ELEMENT_THEORY = SGP/SGP4

EPOCH          = 2026-02-09T14:00:01.000224
MEAN_MOTION    = 15.75178334
ECCENTRICITY   = .00016792
INCLINATION    = 97.2837
RA_OF_ASC_NODE = 284.0958
ARG_OF_PERICENTER = 79.6885
MEAN_ANOMALY   = 29.6171

EPHEMERIS_TYPE = 0
CLASSIFICATION_TYPE = U
NORAD_CAT_ID   = 67541
ELEMENT_SET_NO = 999
REV_AT_EPOCH   = 417
BSTAR          = -.52938018E-4
MEAN_MOTION_DOT = -.8015E-4
MEAN_MOTION_DDOT = 0

CCSDS_OMM_VERS = 2.0
CREATION_DATE  = 
ORIGINATOR     = 

OBJECT_NAME    = STARLINK-35934
OBJECT_ID      = 2026-014L
CENTER_NAME    = EARTH
REF_FRAME      = TEME
TIME_SYSTEM    = UTC
MEAN_ELEMENT_THEORY = SGP/SGP4

EPOCH          = 2026-02-09T14:57:11.884608
MEAN_MOTION    = 15.80923157
ECCENTRICITY   = .00013781
INCLINATION    = 97.2840
RA_OF_ASC_NODE = 284.1471
ARG_OF_PERICENTER = 97.2867
MEAN_ANOMALY   = 262.8558

EPHEMERIS_TYPE = 0
CLASSIFICATION_TYPE = U
NORAD_CAT_ID   = 67542
ELEMENT_SET_NO = 999
REV_AT_EPOCH   = 414
BSTAR          = .12832786E-2
MEAN_MOTION_DOT = .254205E-2
MEAN_MOTION_DDOT = 0

CCSDS_OMM_VERS = 2.0
CREATION_DATE  = 
ORIGINATOR     = 

OBJECT_NAME    = STARLINK-36581
OBJECT_ID      = 2026-014M
CENTER_NAME    = EARTH
REF_FRAME      = TEME
TIME_SYSTEM    = UTC
MEAN_ELEMENT_THEORY = SGP/SGP4

EPOCH          = 2026-02-09T13:24:19.482048
MEAN_MOTION    = 15.80880263
ECCENTRICITY   = .00014423
INCLINATION    = 97.2843
RA_OF_ASC_NODE = 284.0808
ARG_OF_PERICENTER = 94.3663
MEAN_ANOMALY   = 265.7770

EPHEMERIS_TYPE = 0
CLASSIFICATION_TYPE = U
NORAD_CAT_ID   = 67543
ELEMENT_SET_NO = 999
REV_AT_EPOCH   = 414
BSTAR          = .78812649E-3
MEAN_MOTION_DOT = .153966E-2
MEAN_MOTION_DDOT = 0

CCSDS_OMM_VERS = 2.0
CREATION_DATE  = 
ORIGINATOR     = 

OBJECT_NAME    = STARLINK-36565
OBJECT_ID      = 2026-014N
CENTER_NAME    = EARTH
REF_FRAME      = TEME
TIME_SYSTEM    = UTC
MEAN_ELEMENT_THEORY = SGP/SGP4

EPOCH          = 2026-02-09T14:53:57.170112
MEAN_MOTION    = 15.80930025
ECCENTRICITY   = .00017169
INCLINATION    = 97.2843
RA_OF_ASC_NODE = 284.1497
ARG_OF_PERICENTER = 104.3586
MEAN_ANOMALY   = 255.7873

EPHEMERIS_TYPE = 0
CLASSIFICATION_TYPE = U
NORAD_CAT_ID   = 67544
ELEMENT_SET_NO = 999
REV_AT_EPOCH   = 415
BSTAR          = .13388681E-2
MEAN_MOTION_DOT = .265659E-2
MEAN_MOTION_DDOT = 0

CCSDS_OMM_VERS = 2.0
CREATION_DATE  = 
ORIGINATOR     = 

OBJECT_NAME    = STARLINK-36583
OBJECT_ID      = 2026-014P
CENTER_NAME    = EARTH
REF_FRAME      = TEME
TIME_SYSTEM    = UTC
MEAN_ELEMENT_THEORY = SGP/SGP4

EPOCH          = 2026-02-09T14:00:01.000224
MEAN_MOTION    = 15.75164196
ECCENTRICITY   = .00014686
INCLINATION    = 97.2843
RA_OF_ASC_NODE = 284.0848
ARG_OF_PERICENTER = 83.5474
MEAN_ANOMALY   = 3.7827

EPHEMERIS_TYPE = 0
CLASSIFICATION_TYPE = U
NORAD_CAT_ID   = 67545
ELEMENT_SET_NO = 999
REV_AT_EPOCH   = 417
BSTAR          = .24292113E-4
MEAN_MOTION_DOT = .3491E-4
MEAN_MOTION_DDOT = 0

CCSDS_OMM_VERS = 2.0
CREATION_DATE  = 
ORIGINATOR     = 

OBJECT_NAME    = STARLINK-36580
OBJECT_ID      = 2026-014Q
CENTER_NAME    = EARTH
REF_FRAME      = TEME
TIME_SYSTEM    = UTC
MEAN_ELEMENT_THEORY = SGP/SGP4

EPOCH          = 2026-02-09T14:50:26.851776
MEAN_MOTION    = 15.80882620
ECCENTRICITY   = .00017087
INCLINATION    = 97.2849
RA_OF_ASC_NODE = 284.1502
ARG_OF_PERICENTER = 101.4433
MEAN_ANOMALY   = 258.7027

EPHEMERIS_TYPE = 0
CLASSIFICATION_TYPE = U
NORAD_CAT_ID   = 67546
ELEMENT_SET_NO = 999
REV_AT_EPOCH   = 415
BSTAR          = .68468883E-3
MEAN_MOTION_DOT = .133441E-2
MEAN_MOTION_DDOT = 0

CCSDS_OMM_VERS = 2.0
CREATION_DATE  = 
ORIGINATOR     = 

OBJECT_NAME    = STARLINK-36584
OBJECT_ID      = 2026-014R
CENTER_NAME    = EARTH
REF_FRAME      = TEME
TIME_SYSTEM    = UTC
MEAN_ELEMENT_THEORY = SGP/SGP4

EPOCH          = 2026-02-09T14:49:03.578592
MEAN_MOTION    = 15.80893423
ECCENTRICITY   = .00013151
INCLINATION    = 97.2758
RA_OF_ASC_NODE = 284.1480
ARG_OF_PERICENTER = 49.9185
MEAN_ANOMALY   = 310.2198

EPHEMERIS_TYPE = 0
CLASSIFICATION_TYPE = U
NORAD_CAT_ID   = 67547
ELEMENT_SET_NO = 999
REV_AT_EPOCH   = 415
BSTAR          = .10113325E-2
MEAN_MOTION_DOT = .198754E-2
MEAN_MOTION_DDOT = 0

CCSDS_OMM_VERS = 2.0
CREATION_DATE  = 
ORIGINATOR     = 

OBJECT_NAME    = STARLINK-36586
OBJECT_ID      = 2026-014S
CENTER_NAME    = EARTH
REF_FRAME      = TEME
TIME_SYSTEM    = UTC
MEAN_ELEMENT_THEORY = SGP/SGP4

EPOCH          = 2026-02-09T14:47:05.314272
MEAN_MOTION    = 15.80918156
ECCENTRICITY   = .00013854
INCLINATION    = 97.2847
RA_OF_ASC_NODE = 284.1565
ARG_OF_PERICENTER = 93.3013
MEAN_ANOMALY   = 266.8414

EPHEMERIS_TYPE = 0
CLASSIFICATION_TYPE = U
NORAD_CAT_ID   = 67548
ELEMENT_SET_NO = 999
REV_AT_EPOCH   = 415
BSTAR          = .12070925E-2
MEAN_MOTION_DOT = .238619E-2
MEAN_MOTION_DDOT = 0

CCSDS_OMM_VERS = 2.0
CREATION_DATE  = 
ORIGINATOR     = 

OBJECT_NAME    = STARLINK-36564
OBJECT_ID      = 2026-014T
CENTER_NAME    = EARTH
REF_FRAME      = TEME
TIME_SYSTEM    = UTC
MEAN_ELEMENT_THEORY = SGP/SGP4

EPOCH          = 2026-02-09T14:00:01.000224
MEAN_MOTION    = 15.75187874
ECCENTRICITY   = .0001704
INCLINATION    = 97.2846
RA_OF_ASC_NODE = 284.1091
ARG_OF_PERICENTER = 93.3227
MEAN_ANOMALY   = 49.9886

EPHEMERIS_TYPE = 0
CLASSIFICATION_TYPE = U
NORAD_CAT_ID   = 67549
ELEMENT_SET_NO = 999
REV_AT_EPOCH   = 411
BSTAR          = -.25741217E-3
MEAN_MOTION_DOT = -.3835E-3
MEAN_MOTION_DDOT = 0

CCSDS_OMM_VERS = 2.0
CREATION_DATE  = 
ORIGINATOR     = 

OBJECT_NAME    = STARLINK-36563
OBJECT_ID      = 2026-014U
CENTER_NAME    = EARTH
REF_FRAME      = TEME
TIME_SYSTEM    = UTC
MEAN_ELEMENT_THEORY = SGP/SGP4

EPOCH          = 2026-02-09T14:00:01.000224
MEAN_MOTION    = 15.75111386
ECCENTRICITY   = .00013348
INCLINATION    = 97.2850
RA_OF_ASC_NODE = 284.1188
ARG_OF_PERICENTER = 99.6238
MEAN_ANOMALY   = 67.7030

EPHEMERIS_TYPE = 0
CLASSIFICATION_TYPE = U
NORAD_CAT_ID   = 67550
ELEMENT_SET_NO = 999
REV_AT_EPOCH   = 417
BSTAR          = .81318344E-3
MEAN_MOTION_DOT = .122499E-2
MEAN_MOTION_DDOT = 0

CCSDS_OMM_VERS = 2.0
CREATION_DATE  = 
ORIGINATOR     = 

OBJECT_NAME    = STARLINK-36566
OBJECT_ID      = 2026-014V
CENTER_NAME    = EARTH
REF_FRAME      = TEME
TIME_SYSTEM    = UTC
MEAN_ELEMENT_THEORY = SGP/SGP4

EPOCH          = 2026-02-09T14:00:01.000224
MEAN_MOTION    = 15.75186256
ECCENTRICITY   = .0001808
INCLINATION    = 97.2849
RA_OF_ASC_NODE = 284.1243
ARG_OF_PERICENTER = 88.7180
MEAN_ANOMALY   = 90.5913

EPHEMERIS_TYPE = 0
CLASSIFICATION_TYPE = U
NORAD_CAT_ID   = 67551
ELEMENT_SET_NO = 999
REV_AT_EPOCH   = 417
BSTAR          = -.15886659E-3
MEAN_MOTION_DOT = -.23757E-3
MEAN_MOTION_DDOT = 0

CCSDS_OMM_VERS = 2.0
CREATION_DATE  = 
ORIGINATOR     = 

OBJECT_NAME    = STARLINK-36567
OBJECT_ID      = 2026-014W
CENTER_NAME    = EARTH
REF_FRAME      = TEME
TIME_SYSTEM    = UTC
MEAN_ELEMENT_THEORY = SGP/SGP4

EPOCH          = 2026-02-09T14:00:01.000224
MEAN_MOTION    = 15.75177058
ECCENTRICITY   = .00017469
INCLINATION    = 97.2853
RA_OF_ASC_NODE = 284.0993
ARG_OF_PERICENTER = 87.9099
MEAN_ANOMALY   = 43.4002

EPHEMERIS_TYPE = 0
CLASSIFICATION_TYPE = U
NORAD_CAT_ID   = 67552
ELEMENT_SET_NO = 999
REV_AT_EPOCH   = 417
BSTAR          = -.10910684E-3
MEAN_MOTION_DOT = -.16364E-3
MEAN_MOTION_DDOT = 0

