STARLINK-36579          
1 67541U 26014K   26040.58334491 -.00008015  00000+0 -52938-4 0  9991
2 67541  97.2837 284.0958 0001679  79.6885  29.6171 15.75178334  4175
STARLINK-35934          
1 67542U 26014L   26040.62305422  .00254205  00000+0  12833-2 0  9999
2 67542  97.2840 284.1471 0001378  97.2867 262.8558 15.80923157  4147
STARLINK-36581          
1 67543U 26014M   26040.55855882  .00153966  00000+0  78813-3 0  9995
2 67543  97.2843 284.0808 0001442  94.3663 265.7770 15.80880263  4146
STARLINK-36565          
1 67544U 26014N   26040.62080058  .00265659  00000+0  13389-2 0  9998
2 67544  97.2843 284.1497 0001716 104.3586 255.7873 15.80930025  4158
STARLINK-36583          
1 67545U 26014P   26040.58334491  .00003491  00000+0  24292-4 0  9998
2 67545  97.2843 284.0848 0001468  83.5474   3.7827 15.75164196  4170
STARLINK-36580          
1 67546U 26014Q   26040.61836634  .00133441  00000+0  68469-3 0  9991
2 67546  97.2849 284.1502 0001708 101.4433 258.7027 15.80882620  4154
STARLINK-36584          
1 67547U 26014R   26040.61740253  .00198754  00000+0  10113-2 0  9993
2 67547  97.2758 284.1480 0001315  49.9185 310.2198 15.80893423  4159
STARLINK-36586          
1 67548U 26014S   26040.61603373  .00238619  00000+0  12071-2 0  9995
2 67548  97.2847 284.1565 0001385  93.3013 266.8414 15.80918156  4151
STARLINK-36564          
1 67549U 26014T   26040.58334491 -.00038350  00000+0 -25741-3 0  9995
2 67549  97.2846 284.1091 0001704  93.3227  49.9886 15.75187874  4115
STARLINK-36563          
1 67550U 26014U   26040.58334491  .00122499  00000+0  81318-3 0  9995
2 67550  97.2850 284.1188 0001334  99.6238  67.7030 15.75111386  4179
STARLINK-36566          
1 67551U 26014V   26040.58334491 -.00023757  00000+0 -15887-3 0  9993
2 67551  97.2849 284.1243 0001808  88.7180  90.5913 15.75186256  4173
STARLINK-36567          
1 67552U 26014W   26040.58334491 -.00016364  00000+0 -10911-3 0  9993
2 67552  97.2853 284.0993 0001746  87.9099  43.4002 15.75177058  4177
